{
    "links": {
        "self": "http://www.neowsapp.com/rest/v1/neo/3985570?api_key=iIulBulltgU6a56xZRHN4H3l9WmuAYTsLGpBGhQ2"
    },
    "id": "3985570",
    "neo_reference_id": "3985570",
    "name": "(2020 AU2)",
    "designation": "2020 AU2",
    "nasa_jpl_url": "http://ssd.jpl.nasa.gov/sbdb.cgi?sstr=3985570",
    "absolute_magnitude_h": 25.1,
    "estimated_diameter": {
        "kilometers": {
            "estimated_diameter_min": 0.0253837029,
            "estimated_diameter_max": 0.0567596853
        },
        "meters": {
            "estimated_diameter_min": 25.3837029364,
            "estimated_diameter_max": 56.7596852866
        },
        "miles": {
            "estimated_diameter_min": 0.0157726969,
            "estimated_diameter_max": 0.0352688224
        },
        "feet": {
            "estimated_diameter_min": 83.279867942,
            "estimated_diameter_max": 186.2194458756
        }
    },
    "is_potentially_hazardous_asteroid": false,
    "close_approach_data": [
        {
            "close_approach_date": "2020-01-04",
            "close_approach_date_full": "2020-Jan-04 05:50",
            "epoch_date_close_approach": 1578117000000,
            "relative_velocity": {
                "kilometers_per_second": "8.5844705926",
                "kilometers_per_hour": "30904.0941334063",
                "miles_per_hour": "19202.6022686157"
            },
            "miss_distance": {
                "astronomical": "0.0362370374",
                "lunar": "14.0962075486",
                "kilometers": "5420983.610150338",
                "miles": "3368443.0185691444"
            },
            "orbiting_body": "Earth"
        }
    ],
    "orbital_data": {
        "orbit_id": "2",
        "orbit_determination_date": "2020-01-23 10:55:20",
        "first_observation_date": "2019-12-29",
        "last_observation_date": "2020-01-23",
        "data_arc_in_days": 25,
        "observations_used": 36,
        "orbit_uncertainty": "8",
        "minimum_orbit_intersection": ".030895",
        "jupiter_tisserand_invariant": "3.315",
        "epoch_osculation": "2458852.5",
        "eccentricity": ".5678717776290554",
        "semi_major_axis": "2.338347104537916",
        "inclination": "9.030239557109969",
        "ascending_node_longitude": "110.3939064084919",
        "orbital_period": "1306.05628784738",
        "perihelion_distance": "1.010465777570215",
        "perihelion_argument": "350.1741453734868",
        "aphelion_distance": "3.666228431505617",
        "perihelion_time": "2458850.067834817225",
        "mean_anomaly": ".6703994873315261",
        "mean_motion": ".2756389623860284",
        "equinox": "J2000",
        "orbit_class": {
            "orbit_class_type": "APO",
            "orbit_class_description": "Near-Earth asteroid orbits which cross the Earth’s orbit similar to that of 1862 Apollo",
            "orbit_class_range": "a (semi-major axis) > 1.0 AU; q (perihelion) < 1.017 AU"
        }
    },
    "is_sentry_object": false
}